TRANSIT 16 [?]          
1 02807U 67048A   22326.43905966  .00000117  00000+0  16684-3 0  9995
2 02807  89.6626  31.0439 0022279 103.7325 271.3961 13.50340597732580
TRANSIT 17 [?]          
1 02965U 67092A   22325.80763662  .00000107  00000+0  14344-3 0  9994
2 02965  89.2318 111.2650 0046368 237.6764 254.2635 13.53051867719916
TRANSIT 18 [?]          
1 03133U 68012A   22325.91388062  .00000088  00000+0  11818-3 0  9995
2 03133  90.0083 271.6578 0075152 163.7602 259.4472 13.51178045694864
NNSS 19 [?]             
1 04507U 70067A   22326.33346468  .00000079  00000+0  10171-3 0  9996
2 04507  89.9340 238.1600 0170812 287.3392  70.9138 13.50860599571865
NNSS O-20 [?]           
1 06909U 73081A   22326.38021007  .00000108  00000+0  99871-4 0  9995
2 06909  89.8198 274.4353 0155870 183.2349 176.7821 13.70719156650927
TRANSAT [?]             
1 10457U 77106A   22325.82481133  .00000065  00000+0  87426-4 0  9993
2 10457  89.6726 117.4187 0025412 169.6085 319.9379 13.48696840216879
NOVA I [?]              
1 12458U 81044A   22326.15807494  .00000068  00000+0  14043-3 0  9998
2 12458  89.8820 105.9225 0013078 306.6002 228.6635 13.23081568  4471
NOVA 3 [?]              
1 15362U 84110A   22325.82649729  .00000032  00000+0  55592-4 0  9996
2 15362  90.1059  68.4660 0032528 165.7994 314.0228 13.22847164839316
OSCAR 30 [?]            
1 15935U 85066A   22326.23020150  .00000079  00000+0  12960-3 0  9992
2 15935  90.1815  80.6476 0168304 354.0308  72.5665 13.35775940815532
OSCAR 24 [?]            
1 15936U 85066B   22325.88437944  .00000069  00000+0  11137-3 0  9990
2 15936  90.1792  72.5647 0169011   0.8203 122.8085 13.35634775817338
POLAR BEAR [?]          
1 17070U 86088A   22325.76928905  .00000081  00000+0  73534-4 0  9999
2 17070  89.5752 230.4484 0037178 248.5874 172.7930 13.74893142806568
OSCAR 27 [?]            
1 18361U 87080A   22326.28037310  .00000089  00000+0  13406-3 0  9994
2 18361  90.3402  39.4998 0104633 180.6651 179.4374 13.44586450725778
OSCAR 29 [?]            
1 18362U 87080B   22325.79304424  .00000073  00000+0  10852-3 0  9998
2 18362  90.3417  39.8264 0105558 202.7134 281.5115 13.44173520725031
OSCAR 23 [?]            
1 19070U 88033A   22326.46685656  .00000084  00000+0  15098-3 0  9997
2 19070  90.3241 341.8276 0191153  44.8354  78.9603 13.27539268674687
OSCAR 32 [?]            
1 19071U 88033B   22325.84658420  .00000090  00000+0  16353-3 0  9990
2 19071  90.3244 341.8972 0189188  34.4477 141.9103 13.27718458674439
NOVA 11 [?]             
1 19223U 88052A   22326.41613984  .00000033  00000+0  58789-4 0  9997
2 19223  89.9783  80.4663 0030031 207.2693 221.2287 13.22759064662160
OSCAR 25 [?]            
1 19419U 88074A   22326.44239051  .00000101  00000+0  15852-3 0  9999
2 19419  90.0091  18.0027 0096242 189.3333 181.2370 13.42315431676903
OSCAR 31 [?]            
1 19420U 88074B   22326.16634638  .00000093  00000+0  14477-3 0  9992
2 19420  90.0103  18.1953 0094585 184.2516 230.6097 13.42324597676978
